VERONIKA                
1 58261U 23174F   25003.57247995  .00057055  00000+0  14596-2 0  9995
2 58261  97.4368  84.4739 0008056 252.4419 107.5947 15.39199934 64323
2024-149A               
1 60468U 24149A   25003.47354853  .00013923  00000+0  62362-3 0  9992
2 60468  97.4252  82.8118 0002730 311.1019  48.9981 15.21363120 21209
WARATAH SEED-1          
1 60469U 24149B   25003.45550949  .00011901  00000+0  53266-3 0  9992
2 60469  97.4246  82.8180 0001594 332.3164  27.7986 15.21429884 21205
PHISAT 2                
1 60470U 24149C   25003.55067436  .00013099  00000+0  59293-3 0  9995
2 60470  97.4280  82.9152 0000984   3.1941 356.9301 15.21018763 21212
LEMUR-2-TOMATOKECHUP    
1 60471U 24149D   25003.17472032  .00018514  00000+0  81040-3 0  9998
2 60471  97.4302  82.6945 0001589 351.8494   8.2716 15.22089282 21169
CONNECTA IOT-1          
1 60472U 24149E   25003.45377141  .00009796  00000+0  45572-3 0  9997
2 60472  97.4287  82.7441 0001946   9.5232 350.6040 15.20148696 21198
LOPEN                   
1 60473U 24149F   25003.47897753  .00018496  00000+0  79810-3 0  9995
2 60473  97.4292  83.0354 0001879  17.5328 342.5973 15.22577940 21210
ROCK                    
1 60474U 24149G   25003.47801883  .00018250  00000+0  78702-3 0  9992
2 60474  97.4294  83.0355 0001900  17.2036 342.9264 15.22601254 21215
CONNECTA IOT-3          
1 60475U 24149H   25003.49565443  .00011423  00000+0  52395-3 0  9999
2 60475  97.4239  82.7512 0003442 346.1983  13.9158 15.20594622 21208
QUBE                    
1 60476U 24149J   25003.16338004  .00023281  00000+0  97144-3 0  9991
2 60476  97.4298  82.8478 0002618 352.7742   7.3457 15.23666386 21171
SATORO-T2               
1 60477U 24149K   25003.18464225  .00032615  00000+0  12654-2 0  9992
2 60477  97.4275  83.0550 0001625 337.5982  22.5185 15.26040619 21192
WREN-1                  
1 60478U 24149L   25003.46590508  .00025278  00000+0  10385-2 0  9994
2 60478  97.4266  83.1615 0006202 358.2112   1.9102 15.24160996 21220
TOMORROW-S1             
1 60479U 24149M   25003.16470062  .00016338  00000+0  70950-3 0  9996
2 60479  97.4257  82.6083 0002734 350.6024   9.5161 15.22385299 21163
FLOCK 4BE-18            
1 60480U 24149N   25003.53056910  .00015692  00000+0  67193-3 0  9998
2 60480  97.4257  83.0550 0005306 353.2026   6.9137 15.22863668 21220
FLOCK 4BE-7             
1 60481U 24149P   25003.53507839  .00014105  00000+0  61041-3 0  9994
2 60481  97.4283  83.1074 0003968 357.2689   2.8525 15.22532765 21220
FLOCK 4BE-4             
1 60482U 24149Q   25003.18117355  .00035449  00000+0  92189-3 0  9997
2 60482  97.4251  84.1539 0001119 309.7375  50.3771 15.38839858 21268
FLOCK 4BE-16            
1 60483U 24149R   25003.45333929  .00017676  00000+0  75634-3 0  9993
2 60483  97.4273  83.0365 0003262 356.0112   4.1098 15.22870962 21211
FLOCK 4BE-26            
1 60484U 24149S   25003.45684170  .00017608  00000+0  75688-3 0  9995
2 60484  97.4241  82.9735 0004409 356.9585   3.1624 15.22711947 21214
TOMORROW-S2             
1 60485U 24149T   25003.52739986  .00011569  00000+0  50261-3 0  9990
2 60485  97.4307  83.1486 0003210   1.0400 359.0842 15.22450034 21220
FLOCK 4BE-36            
1 60486U 24149U   25003.17932886  .00022858  00000+0  96722-3 0  9991
2 60486  97.4248  82.7485 0005621   3.2700 356.8573 15.23185484 21179
FLOCK 4BE-25            
1 60487U 24149V   25003.19417734  .00018369  00000+0  79164-3 0  9997
2 60487  97.4306  82.8285 0003275   4.3025 355.8239 15.22619471 21174
FLOCK 4BE-31            
1 60488U 24149W   25003.16682335  .00022797  00000+0  96223-3 0  9991
2 60488  97.4303  82.8617 0003995   5.8263 354.3020 15.23277662 21175
FLOCK 4BE-20            
1 60489U 24149X   25003.19528434  .00016781  00000+0  72633-3 0  9999
2 60489  97.4228  82.6892 0004646   0.3834 359.7405 15.22486687 21177
FLOCK 4BE-23            
1 60490U 24149Y   25003.60449783  .00012773  00000+0  55784-3 0  9991
2 60490  97.4296  83.1825 0004402   1.6441 358.4809 15.22244827 21233
FLOCK 4BE-15            
1 60491U 24149Z   25003.18070268  .00021087  00000+0  89852-3 0  9994
2 60491  97.4231  82.7064 0004787   5.4841 354.6447 15.22970903 21175
FLOCK 4BE-17            
1 60492U 24149AA  25003.52423195  .00014356  00000+0  61984-3 0  9991
2 60492  97.4300  83.1550 0003696   4.4096 355.7172 15.22607994 21227
NUSAT-50 (NANCY ROMAN)  
1 60493U 24149AB  25003.25003295  .00017936  00000+0  76903-3 0  9991
2 60493  97.4284  82.8725 0004710   5.1150 355.0134 15.22792104 21180
FLOCK 4BE-22            
1 60494U 24149AC  25003.17521477  .00019957  00000+0  84974-3 0  9992
2 60494  97.4246  82.7425 0005566   8.3639 351.7690 15.23003961 21178
FLOCK 4BE-34            
1 60495U 24149AD  25003.59692551  .00037164  00000+0  16017-2 0  9993
2 60495  97.4296  83.1907 0004843   6.1998 353.9298 15.22460283 21233
TYCHE                   
1 60496U 24149AE  25003.53098043  .00008861  00000+0  40497-3 0  9996
2 60496  97.4285  82.9466 0005092  15.4927 344.6464 15.20783270 21213
FLOCK 4BE-32            
1 60497U 24149AF  25003.48125386  .00017429  00000+0  73563-3 0  9992
2 60497  97.4237  83.0707 0005025   7.0219 353.1087 15.23332099 21227
NUSAT-48 (HENRIETTA LE*)
1 60498U 24149AG  25003.17686398  .00019177  00000+0  82073-3 0  9992
2 60498  97.4254  82.7544 0005718  13.1656 346.9729 15.22836964 21170
FLOCK 4BE-30            
1 60499U 24149AH  25003.48653258  .00017844  00000+0  75510-3 0  9993
2 60499  97.4305  83.2056 0003971  15.3882 344.7475 15.23243903 20603
NUSAT-49 (KLARA DAN VO*)
1 60500U 24149AJ  25003.17446364  .00019040  00000+0  81472-3 0  9994
2 60500  97.4280  82.8131 0004620  11.2728 348.8611 15.22849766 21171
FLOCK 4BE-11            
1 60501U 24149AK  25003.55414853  .00017560  00000+0  74236-3 0  9990
2 60501  97.4231  83.1284 0005715  11.7962 348.3408 15.23271778 21231
FLOCK 4BE-33            
1 60502U 24149AL  25003.50244104  .00015649  00000+0  67260-3 0  9991
2 60502  97.4247  83.0694 0005413  18.0343 342.1085 15.22738068 21222
FLOCK 4BE-10            
1 60503U 24149AM  25003.16958561  .00019352  00000+0  82819-3 0  9995
2 60503  97.4297  82.8534 0003994  20.2859 339.8535 15.22843325 21177
YAM-7                   
1 60504U 24149AN  25003.53804408  .00011932  00000+0  52741-3 0  9994
2 60504  97.4293  83.1014 0004629  25.6166 334.5299 15.21849410 21222
FLOCK 4BE-24            
1 60505U 24149AP  25003.52284906  .00018160  00000+0  76038-3 0  9994
2 60505  97.4230  83.1679 0005776  21.0527 339.0947 15.23589334 21235
LUR-1                   
1 60506U 24149AQ  25003.49288684  .00010117  00000+0  45555-3 0  9992
2 60506  97.4275  82.9748 0005363  29.0631 331.0902 15.21253833 21216
TANAGER-1               
1 60507U 24149AR  25003.47013107  .00012806  00000+0  31501-3 0  9990
2 60507  97.4290  84.5278 0010456 259.2784 100.7285 15.40705196 21316
EAGLEEYE                
1 60508U 24149AS  25003.49490372  .00031850  00000+0  12392-2 0  9992
2 60508  97.4253  83.3894 0004967  20.1844 339.9590 15.25942146 21247
FLOCK 4BE-29            
1 60509U 24149AT  25003.50779301  .00020412  00000+0  84681-3 0  9990
2 60509  97.4305  83.3314 0004654  32.0545 328.0974 15.23882374 21234
2024-149AU              
1 60510U 24149AU  25003.46099986  .00017665  00000+0  74295-3 0  9997
2 60510  97.4242  83.1219 0005572  29.8494 330.3060 15.23446469 21227
FLOCK 4BE-2             
1 60511U 24149AV  25003.48612490  .00022371  00000+0  91709-3 0  9990
2 60511  97.4318  83.3694 0004443  31.2094 328.9406 15.24266413 21238
FLOCK 4BE-13            
1 60512U 24149AW  25003.18332862  .00021457  00000+0  89221-3 0  9990
2 60512  97.4226  82.8473 0006088  22.2125 337.9375 15.23788586 21186
FLOCK 4BE-27            
1 60513U 24149AX  25003.16585732  .00017072  00000+0  73915-3 0  9996
2 60513  97.4317  82.8781 0006046  35.9167 324.2475 15.22465017 21170
FLOCK 4BE-9             
1 60514U 24149AY  25003.18620649  .00017611  00000+0  74097-3 0  9997
2 60514  97.4297  82.9681 0004699  39.4282 320.7296 15.23438452 21184
FLOCK 4BE-8             
1 60515U 24149AZ  25003.19832691  .00017126  00000+0  72605-3 0  9995
2 60515  97.4246  82.8541 0006155  31.3116 328.8486 15.23179676 21189
FLOCK 4BE-6             
1 60516U 24149BA  25003.20072132  .00016516  00000+0  70282-3 0  9995
2 60516  97.4303  82.9608 0005272  37.6913 322.4692 15.23064534 21187
FLOCK 4BE-14            
1 60517U 24149BB  25003.16151437  .00018964  00000+0  79394-3 0  9999
2 60517  97.4245  82.9057 0006730  32.4099 327.7550 15.23580733 21184
FLOCK 4BE-1             
1 60518U 24149BC  25003.48138843  .00018562  00000+0  76647-3 0  9993
2 60518  97.4291  83.3301 0005930  37.1040 323.0606 15.24054193 21236
FLOCK 4BE-28            
1 60519U 24149BD  25003.48043728  .00020484  00000+0  84221-3 0  9994
2 60519  97.4252  83.2663 0007378  29.6830 330.4824 15.24171020 21238
IPERDRONE.0             
1 60520U 24149BE  25003.18543386  .00031666  00000+0  12164-2 0  9998
2 60520  97.4277  83.2192 0006415  23.3016 336.8512 15.26361463 21207
2024-149BF              
1 60521U 24149BF  25003.54807992  .00027831  00000+0  10505-2 0  9991
2 60521  97.4290  83.6850 0006325  24.1095 336.0439 15.26972468 21263
CONNECTA IOT-2          
1 60522U 24149BG  25003.53905034  .00011558  00000+0  49934-3 0  9995
2 60522  97.4310  83.2845 0007584  37.4334 322.7429 15.22621504 21234
PTD-R (TYVAK-0127)      
1 60523U 24149BH  25003.48123339  .00037625  00000+0  13509-2 0  9991
2 60523  97.4242  83.6866 0006775  21.0867 339.0651 15.28554018 21269
CONNECTA IOT-4          
1 60524U 24149BJ  25003.15624928  .00023547  00000+0  10153-2 0  9996
2 60524  97.4277  82.8101 0008618  27.3165 332.8523 15.22521015 21173
ORESAT0.5               
1 60525U 24149BK  25003.17113694  .00022900  00000+0  92394-3 0  9992
2 60525  97.4225  83.0090 0008454  21.8533 338.3064 15.24774088 21198
